CZ-2D R/B               
1 28738U 05024B   26182.04764499  .00080877  00000+0  63948-3 0  9993
2 28738  97.3473 202.1820 0000562 345.7880  14.3367 15.71116499157513
ALOS (DAICHI)           
1 28931U 06002A   26182.11193558  .00001106  00000+0  19240-3 0  9999
2 28931  98.1330 137.6365 0000935  61.4246 298.7054 14.70078126 90145
H-2A R/B                
1 28932U 06002B   26182.02771481  .00009479  00000+0  45171-3 0  9990
2 28932  98.2578 339.1109 0049982 214.3327 145.4671 15.18250041111621
RESURS-DK 1             
1 29228U 06021A   26182.04901117  .00002356  00000+0  13817-3 0  9992
2 29228  69.9341 303.6702 0006702 285.3070  74.7355 15.13273733104672
CZ-4B R/B               
1 29507U 06046C   26182.16312917  .00004669  00000+0  23097-3 0  9996
2 29507  97.5439 226.7271 0031330 231.7863 128.0549 15.17885589 77256
CZ-2C R/B               
1 31114U 07010B   26182.14960206  .00000094  00000+0  62451-4 0  9999
2 31114  98.4112 289.8185 0058225 325.2948  34.4437 14.20279215995824
COSMO-SKYMED 1          
1 31598U 07023A   26182.17048965  .00002155  00000+0  19165-3 0  9994
2 31598  97.8855  14.1444 0001488  83.8219 276.3172 14.97171680 31882
COSMOS 2428             
1 31792U 07029A   26182.09049448  .00000051  00000+0  53086-4 0  9998
2 31792  70.9377 325.2846 0007126 108.4089 251.7808 14.12928549980118
SL-16 R/B               
1 31793U 07029B   26182.05914690 -.00000257  00000+0 -10850-3 0  9996
2 31793  70.9767 294.0681 0002434 262.1172 270.3188 14.14853338981406
KORONAS-FOTON           
1 33504U 09003A   26181.99572852  .00011985  00000+0  24413-3 0  9992
2 33504  82.4290 157.8514 0012611 105.0055 255.2590 15.46006589963235
CZ-2C R/B               
1 37731U 11030B   26182.14748955  .00001327  00000+0  17230-3 0  9996
2 37731  97.8661 137.2822 0051842 342.7391  27.5795 14.81505676806893
H-2A R/B                
1 38341U 12025E   26182.20519561  .00003222  00000+0  28989-3 0  9994
2 38341  98.4826 158.5066 0042565 302.1044  57.6046 14.95783873765185
SHIJIAN-16 (SJ-16)      
1 39358U 13057A   26182.18097721  .00002096  00000+0  20577-3 0  9998
2 39358  74.9732 330.1769 0016390 198.2648 161.7954 14.92634001688430
SL-4 R/B                
1 39679U 14021B   26182.12637454  .00011435  00000+0  23458-3 0  9991
2 39679  51.6047 142.4691 0090526 156.8175 203.6933 15.42225051673763
ALOS-2                  
1 39766U 14029A   26181.86863941  .00000732  00000+0  10488-3 0  9995
2 39766  97.9232 278.8362 0001598  87.5110 272.6284 14.79474729653601
YAOGAN-29               
1 41038U 15069A   26182.21112297 -.00000137  00000+0 -10131-4 0  9993
2 41038  98.0020 210.8656 0001843  31.8636 328.2688 14.83094660572707
ASTRO-H (HITOMI)        
1 41337U 16012A   26181.77875766  .00002818  00000+0  16084-3 0  9999
2 41337  31.0005 346.4066 0009634  29.3738 330.7441 15.10572596569342
HXMT (HUIYAN)           
1 42758U 17034A   26182.21054255  .00004744  00000+0  23367-3 0  9996
2 42758  43.0145 104.9492 0032616 235.5911 124.1853 15.18578607499798
SAOCOM 1A               
1 43641U 18076A   26182.17824385 -.00000261  00000+0 -26181-4 0  9999
2 43641  97.8878   8.7229 0001554  78.9880 281.1507 14.82156729418170
H-2A R/B                
1 43682U 18084L   26182.11389063  .00026101  00000+0  53708-3 0  9999
2 43682  98.8556  64.0514 0021844 352.2263   7.8640 15.45694937423274
SAOCOM 1B               
1 46265U 20059A   26182.14193348  .00000463  00000+0  64757-4 0  9996
2 46265  97.8881   7.7827 0001584  81.9293 278.2100 14.82148798315558
CSS (TIANHE)            
1 48274U 21035A   26182.11527425  .00021315  00000+0  24568-3 0  9991
2 48274  41.4677 237.2035 0008757 190.5766 169.4890 15.61398699295346
COSMOS 2550             
1 48865U 21056A   26182.17410454  .00011582  00000+0  35698-3 0  9990
2 48865  67.1433  57.5967 0008363 269.0588  90.9608 15.33861501280863
CZ-2C R/B               
1 52794U 22058K   26181.92940339  .00042061  00000+0  44924-3 0  9999
2 52794  50.1859  91.9633 0031547 324.0587  35.8265 15.62816234227791
CZ-2C R/B               
1 54039U 22132E   26181.00889445  .00070629  00000+0  51238-3 0  9992
2 54039  97.2890 188.6182 0013156  42.7723 317.4562 15.73080866207969
GSLV R/B                
1 54149U 22138AN  26181.81848992  .00002462  00000+0  20862-3 0  9990
2 54149  87.3816 128.4071 0024152  98.9323 261.4644 14.97321086200852
XRISM                   
1 57800U 23137A   26181.91709529  .00005011  00000+0  27455-3 0  9998
2 57800  31.0022 270.6602 0007716 102.3924 257.7578 15.12582544154946
ACS3                    
1 59588U 24077B   26182.05425692  .00020966  00000+0  14967-1 0  9997
2 59588  97.1701  97.7590 0105264  51.5816 309.4745 13.94597477109977
CZ-8A R/B               
1 66004U 25231K   26182.16663182 -.00000005  00000+0  56342-4 0  9990
2 66004  50.0054 339.8417 0116489 273.2183  85.5411 14.30158717 36945
SZ-21 MODULE            
1 66515U 25246C   26181.51505126  .00041495  00000+0  24277-3 0  9992
2 66515  41.4700 224.2498 0004988 103.9916 256.1484 15.77532205 35847

ISS (ZARYA)             
1 25544U 98067A   26182.12120860  .00006925  00000+0  13146-3 0  9998
2 25544  51.6311 231.1150 0004254 253.5517 106.5005 15.49499881573915
POISK                   
1 36086U 09060A   26182.12120860  .00006925  00000+0  13146-3 0  9996
2 36086  51.6311 231.1150 0004254 253.5517 106.5005 15.49499881590883
CSS (TIANHE)            
1 48274U 21035A   26182.11527425  .00021315  00000+0  24568-3 0  9991
2 48274  41.4677 237.2035 0008757 190.5766 169.4890 15.61398699295346
ISS (NAUKA)             
1 49044U 21066A   26182.12120860  .00006925  00000+0  13146-3 0  9994
2 49044  51.6311 231.1150 0004254 253.5517 106.5005 15.49499881608612
FREGAT DEB              
1 49271U 11037PF  26181.72808629  .00012018  00000+0  20672-1 0  9994
2 49271  51.6282 321.2139 0898096 311.8980  40.8558 12.42324857226738
CSS (WENTIAN)           
1 53239U 22085A   26181.85942709  .00021186  00000+0  24432-3 0  9996
2 53239  41.4677 238.7619 0008720 188.7770 171.2918 15.61388759288239
CSS (MENGTIAN)          
1 54216U 22143A   26182.11527425  .00021315  00000+0  24568-3 0  9995
2 54216  41.4677 237.2035 0008757 190.5766 169.4890 15.61398699295338
HRC MONOBLOCK CAMERA    
1 66052U 98067XR  26181.33602962  .00068301  00000+0  43236-3 0  9996
2 66052  51.6195 211.5365 0002775   1.6718 358.4291 15.75915911 40072
SZ-21 MODULE            
1 66515U 25246C   26181.51505126  .00041495  00000+0  24277-3 0  9992
2 66515  41.4700 224.2498 0004988 103.9916 256.1484 15.77532205 35847
SOYUZ-MS 28             
1 66664U 25275A   26182.12120860  .00006925  00000+0  13146-3 0  9997
2 66664  51.6311 231.1150 0004254 253.5517 106.5005 15.49499881644079
DUPLEX                  
1 66906U 98067XS  26181.73426325  .00035071  00000+0  37472-3 0  9998
2 66906  51.6243 221.0122 0002679 280.5781  79.4912 15.63556114 32773
ISS OBJECT XY           
1 66912U 98067XY  26180.34749916  .03033787  11989-4  10774-2 0  9998
2 66912  51.6040 208.4573 0006307 344.7501  15.3327 16.24233034 32803
KNACKSAT-2              
1 67683U 98067XZ  26181.35012679  .00038944  00000+0  45592-3 0  9996
2 67683  51.6260 228.2118 0008493 273.6004  86.4018 15.61112165 22338
CORAL                   
1 67684U 98067YA  26181.35937577  .00233575  00000+0  10883-2 0  9991
2 67684  51.6173 219.9456 0009199 328.1176  31.9268 15.82071698 22446
GXIBA-1                 
1 67685U 98067YB  26181.33787848  .00045168  00000+0  49094-3 0  9990
2 67685  51.6249 227.3728 0009323 271.9921  88.0006 15.62953197 22341
UITMSAT-2               
1 67686U 98067YC  26181.51134027  .00073571  00000+0  68195-3 0  9998
2 67686  51.6236 224.7769 0004620 280.0341  80.0134 15.66800430 22390
LEOPARD                 
1 67687U 98067YD  26181.75301009  .00046010  00000+0  51358-3 0  9992
2 67687  51.6270 225.6624 0005042 259.3248 100.7179 15.62297353 22325
HMU-SAT2                
1 67688U 98067YE  26181.38757305  .00056764  00000+0  56896-3 0  9995
2 67688  51.6252 226.2127 0004741 269.5986  90.4466 15.64952500 22281
CREW DRAGON 12          
1 67796U 26031A   26182.12120860  .00006925  00000+0  13146-3 0  9995
2 67796  51.6311 231.1150 0004254 253.5517 106.5005 15.49499881626346
PROGRESS-MS 33          
1 68319U 26058A   26182.12120860  .00006925  00000+0  13146-3 0  9996
2 68319  51.6311 231.1150 0004254 253.5517 106.5005 15.49499881661808
CYGNUS NG-24            
1 68689U 26079A   26181.86323116  .00005885  00000+0  11296-3 0  9996
2 68689  51.6310 232.3923 0004309 252.2804 107.7714 15.49494077679490
PROGRESS-MS 34          
1 68837U 26093A   26181.86323116  .00005885  00000+0  11296-3 0  9997
2 68837  51.6310 232.3923 0004309 252.2804 107.7714 15.49494077697226
TIANZHOU-10             
1 69049U 26102A   26181.85942706  .00021053  00000+0  24281-3 0  9998
2 69049  41.4677 238.7620 0008722 188.8003 171.2684 15.61388671295331
SHENZHOU-23 (SZ-23)     
1 69180U 26113A   26181.85942709  .00021186  00000+0  24432-3 0  9994
2 69180  41.4677 238.7619 0008720 188.7770 171.2918 15.61388759295341
